GLOBALSTAR M023 [+]     
1 25621U 99004A   24065.11539289 -.00000080  00000+0  13404-3 0  9996
2 25621  52.0114  41.7103 0010272 167.4151 272.8028 12.62448301156488
GLOBALSTAR M040 [-]     
1 25622U 99004B   24065.40294601 -.00000052  00000+0  29152-3 0  9991
2 25622  51.9925  44.3023 0001064  82.4750  82.2508 12.61968327156061
GLOBALSTAR M036 [-]     
1 25623U 99004C   24065.09335854 -.00000047  00000+0  51592-3 0  9990
2 25623  51.9984  36.7049 0011374 232.0936 208.0168 11.86561687123297
GLOBALSTAR M038 [-]     
1 25624U 99004D   24064.95421205 -.00000073  00000+0  17784-3 0  9995
2 25624  52.0003 342.8711 0001893 137.9954 301.7604 12.32493948144472
GLOBALSTAR M022 [-]     
1 25649U 99012A   24065.34872390 -.00000105  00000+0 -21922-3 0  9996
2 25649  52.0025 125.3944 0002085 322.2611 118.4818 12.02478335119975
GLOBALSTAR M041 [-]     
1 25650U 99012B   24065.20949940 -.00000041  00000+0  56594-3 0  9990
2 25650  52.0053 352.9263 0002650  97.4127 262.7011 11.96656503122138
GLOBALSTAR M046 [-]     
1 25651U 99012C   24065.50362444 -.00000031  00000+0  63437-3 0  9995
2 25651  52.0043  92.2141 0002203  46.2887 101.4428 12.09386438126953
GLOBALSTAR M037 [+]     
1 25652U 99012D   24065.46970824 -.00000102  00000+0  12443-4 0  9999
2 25652  51.9997 171.4315 0001768 203.4450 237.0989 12.62397168152072
